[{"OBJECT_NAME":"STARLINK-2739","OBJECT_ID":"2021-044B","EPOCH":"2026-03-09T22:56:13.511616","MEAN_MOTION":15.30168673,"ECCENTRICITY":0.00015344,"INCLINATION":53.1576,"RA_OF_ASC_NODE":112.6145,"ARG_OF_PERICENTER":86.6202,"MEAN_ANOMALY":273.4974,"EPHEMERIS_TYPE":0,"CLASSIFICATION_TYPE":"U","NORAD_CAT_ID":48639,"ELEMENT_SET_NO":999,"REV_AT_EPOCH":26386,"BSTAR":-0.00065056068,"MEAN_MOTION_DOT":-0.00019558,"MEAN_MOTION_DDOT":0},{"OBJECT_NAME":"OBJECT A","OBJECT_ID":"2023-189A","EPOCH":"2026-03-09T22:59:06.381600","MEAN_MOTION":15.32403275,"ECCENTRICITY":0.00094831,"INCLINATION":97.4458,"RA_OF_ASC_NODE":86.5997,"ARG_OF_PERICENTER":249.5377,"MEAN_ANOMALY":110.4847,"EPHEMERIS_TYPE":0,"CLASSIFICATION_TYPE":"U","NORAD_CAT_ID":58502,"ELEMENT_SET_NO":999,"REV_AT_EPOCH":12601,"BSTAR":0.00019874471,"MEAN_MOTION_DOT":6.146e-5,"MEAN_MOTION_DDOT":0}]
